{
  "type": "FeatureCollection",
  "name": "005_schwarzwald_habitat",
  "crs": { "type": "name", "properties": { "name": "urn:ogc:def:crs:OGC:1.3:CRS84" } },
  "features": [
    {
      "type": "Feature",
      "properties": {
        "id": "SCHWARZWALD-CORE-01",
        "name": "シュヴァルツヴァルト古代針葉樹原生保護区 (Black Forest Core Sanctuary)",
        "region": "Baden-Württemberg, Germany",
        "type": "Primary Habitat Core",
        "mana_density_mU_m3": 220,
        "humidity_percent": 98,
        "status": "IUCN Category Ia Strict Nature Reserve"
      },
      "geometry": {
        "type": "Polygon",
        "coordinates": [
          [
            [8.050, 47.920],
            [8.220, 47.950],
            [8.260, 47.850],
            [8.100, 47.820],
            [8.020, 47.880],
            [8.050, 47.920]
          ]
        ]
      }
    },
    {
      "type": "Feature",
      "properties": {
        "id": "SCHWARZWALD-BUFFER-02",
        "name": "キルヒツァルテン朝霧回廊・ドルイド巡回外縁区 (Kirchzarten Mist Buffer)",
        "region": "Baden-Württemberg, Germany",
        "type": "Druidic Harvesting Buffer",
        "status": "Authorized Dewdrop Nectar Collection"
      },
      "geometry": {
        "type": "Polygon",
        "coordinates": [
          [
            [7.950, 47.980],
            [8.300, 48.000],
            [8.350, 47.780],
            [7.980, 47.750],
            [7.920, 47.880],
            [7.950, 47.980]
          ]
        ]
      }
    },
    {
      "type": "Feature",
      "properties": {
        "id": "POI-FELDBERG",
        "name": "フェルトベルク山頂観測所 (Feldberg Peak 1,493m)",
        "type": "Observation Landmark"
      },
      "geometry": {
        "type": "Point",
        "coordinates": [8.004, 47.874]
      }
    },
    {
      "type": "Feature",
      "properties": {
        "id": "POI-FREIBURG-GATE",
        "name": "フライブルク自然魔導検問所 (Freiburg Natural Mana Gate)",
        "type": "Border Control"
      },
      "geometry": {
        "type": "Point",
        "coordinates": [7.852, 47.999]
      }
    },
    {
      "type": "Feature",
      "properties": {
        "id": "POI-TITISEE",
        "name": "ティティゼー湖 水霊共鳴湖畔 (Lake Titisee Resonance Shore)",
        "type": "Resonance Lake"
      },
      "geometry": {
        "type": "Point",
        "coordinates": [8.150, 47.900]
      }
    }
  ]
}
