{
  "type": "FeatureCollection",
  "name": "aso_habitat",
  "crs": { "type": "name", "properties": { "name": "urn:ogc:def:crs:OGC:1.3:CRS84" } },
  "features": [
    {
      "type": "Feature",
      "properties": {
        "id": "ASO-NAKADAKE-01",
        "name": "阿蘇中岳第1火口原 繁殖コロニー (Nakadake Crater 1 Breeding Colony)",
        "zone_type": "Feral Invasive Colony",
        "mana_density_mU_m3": 210,
        "temperature_celsius": 980,
        "population_estimate": "12-18 adults",
        "threat_level": "Level III Tactical",
        "corporate_stakeholder": "Yamato Heavy Industries / Teikoku Pharma"
      },
      "geometry": {
        "type": "Polygon",
        "coordinates": [
          [
            [131.082, 32.886],
            [131.090, 32.888],
            [131.093, 32.882],
            [131.087, 32.880],
            [131.082, 32.886]
          ]
        ]
      }
    },
    {
      "type": "Feature",
      "properties": {
        "id": "ASO-SOMMA-RIM",
        "name": "阿蘇大外輪山 結界防壁ライン (Aso Somma Barrier Line)",
        "zone_type": "Containment Somma Rim",
        "altitude_meters": 936
      },
      "geometry": {
        "type": "Polygon",
        "coordinates": [
          [
            [130.980, 32.990],
            [131.180, 32.990],
            [131.220, 32.850],
            [131.150, 32.780],
            [130.980, 32.820],
            [130.950, 32.920],
            [130.980, 32.990]
          ]
        ]
      }
    },
    {
      "type": "Feature",
      "properties": {
        "id": "ASO-THERMAL-SECTOR",
        "name": "中岳地熱エネルギー・プラント警戒区 (Nakadake Geothermal Incursion Sector)",
        "zone_type": "Critical Infrastructure Alert",
        "warning_level": "Grade-4 Pipe Incursion Risk"
      },
      "geometry": {
        "type": "Polygon",
        "coordinates": [
          [
            [131.070, 32.895],
            [131.105, 32.895],
            [131.105, 32.870],
            [131.070, 32.870],
            [131.070, 32.895]
          ]
        ]
      }
    }
  ]
}
